start=new Date('2022-02-04T00:00:00.000Z').valueOf();
sats=[{"TLE_LINE2":"2 49753  53.2174  20.7579 0001358  62.5030  50.3394 15.33594060  3648","CENTER_NAME":"EARTH","RCS_SIZE":"LARGE","INCLINATION":"53.2174","LAUNCH_DATE":"2021-12-02","DECAY_DATE":null,"RA_OF_ASC_NODE":"20.7579","PERIAPSIS":"464.172","MEAN_MOTION_DDOT":"0.0000000000000","OBJECT_TYPE":"PAYLOAD","NORAD_CAT_ID":"49753","ARG_OF_PERICENTER":"62.5030","FILE":"3291273","SITE":"AFETR","MEAN_ANOMALY":"50.3394","REF_FRAME":"TEME","PERIOD":"93.897","BSTAR":"-0.02158400000000","CLASSIFICATION_TYPE":"U","GP_ID":"195261100","EPHEMERIS_TYPE":"0","OBJECT_NAME":"STARLINK-3200","SEMIMAJOR_AXIS":"6843.237","TIME_SYSTEM":"UTC","MEAN_ELEMENT_THEORY":"SGP4","ECCENTRICITY":"0.00013580","OBJECT_ID":"2021-115AF","REV_AT_EPOCH":"364","TLE_LINE1":"1 49753U 21115AF  22034.91668981 -.00660564  00000-0 -21584-1 0  9997","EPOCH":"2022-02-03T22:00:01.999584","MEAN_MOTION":"15.33594060","APOAPSIS":"466.031","COUNTRY_CODE":"US","ELEMENT_SET_NO":"999","MEAN_MOTION_DOT":"-0.00660564"},{"SEMIMAJOR_AXIS":"6822.851","MEAN_ELEMENT_THEORY":"SGP4","TIME_SYSTEM":"UTC","OBJECT_ID":"2021-115AG","ECCENTRICITY":"0.00028970","REV_AT_EPOCH":"1096","MEAN_MOTION":"15.40472499","EPOCH":"2022-02-03T22:00:01.999584","TLE_LINE1":"1 49754U 21115AG  22034.91668981  .00040805  00000-0  99631-3 0  9996","APOAPSIS":"446.692","COUNTRY_CODE":"US","MEAN_MOTION_DOT":"0.00040805","ELEMENT_SET_NO":"999","REF_FRAME":"TEME","BSTAR":"0.00099631000000","PERIOD":"93.478","CLASSIFICATION_TYPE":"U","GP_ID":"195212133","EPHEMERIS_TYPE":"0","OBJECT_NAME":"STARLINK-3193","PERIAPSIS":"442.739","RA_OF_ASC_NODE":"20.5977","NORAD_CAT_ID":"49754","OBJECT_TYPE":"PAYLOAD","MEAN_MOTION_DDOT":"0.0000000000000","ARG_OF_PERICENTER":"16.4812","FILE":"3291225","SITE":"AFETR","MEAN_ANOMALY":"152.0970","TLE_LINE2":"2 49754  53.2188  20.5977 0002897  16.4812 152.0970 15.40472499 10961","CENTER_NAME":"EARTH","RCS_SIZE":"LARGE","INCLINATION":"53.2188","DECAY_DATE":null,"LAUNCH_DATE":"2021-12-02"},{"TLE_LINE2":"2 49755  53.2174  20.7629 0001290  65.7752  36.4539 15.33127824  3643","RCS_SIZE":"LARGE","CENTER_NAME":"EARTH","INCLINATION":"53.2174","DECAY_DATE":null,"LAUNCH_DATE":"2021-12-02","PERIAPSIS":"465.606","RA_OF_ASC_NODE":"20.7629","ARG_OF_PERICENTER":"65.7752","OBJECT_TYPE":"PAYLOAD","MEAN_MOTION_DDOT":"0.0000000000000","NORAD_CAT_ID":"49755","SITE":"AFETR","FILE":"3291273","MEAN_ANOMALY":"36.4539","BSTAR":"-0.02189000000000","PERIOD":"93.926","REF_FRAME":"TEME","CLASSIFICATION_TYPE":"U","GP_ID":"195262099","EPHEMERIS_TYPE":"0","OBJECT_NAME":"STARLINK-3210","TIME_SYSTEM":"UTC","MEAN_ELEMENT_THEORY":"SGP4","SEMIMAJOR_AXIS":"6844.624","REV_AT_EPOCH":"364","ECCENTRICITY":"0.00012900","OBJECT_ID":"2021-115AH","APOAPSIS":"467.372","MEAN_MOTION":"15.33127824","EPOCH":"2022-02-03T22:00:01.999584","TLE_LINE1":"1 49755U 21115AH  22034.91668981 -.00660110  00000-0 -21890-1 0  9996","ELEMENT_SET_NO":"999","COUNTRY_CODE":"US","MEAN_MOTION_DOT":"-0.00660110"},{"ECCENTRICITY":"0.00032360","OBJECT_ID":"2021-115AJ","REV_AT_EPOCH":"364","SEMIMAJOR_AXIS":"6822.772","TIME_SYSTEM":"UTC","MEAN_ELEMENT_THEORY":"SGP4","COUNTRY_CODE":"US","MEAN_MOTION_DOT":"0.00002005","ELEMENT_SET_NO":"999","MEAN_MOTION":"15.40499147","EPOCH":"2022-02-03T22:00:01.999584","TLE_LINE1":"1 49756U 21115AJ  22034.91668981  .00002005  00000-0  58501-4 0  9990","APOAPSIS":"446.845","CLASSIFICATION_TYPE":"U","GP_ID":"195262352","REF_FRAME":"TEME","BSTAR":"0.00005850100000","PERIOD":"93.476","OBJECT_NAME":"STARLINK-3207","EPHEMERIS_TYPE":"0","NORAD_CAT_ID":"49756","OBJECT_TYPE":"PAYLOAD","MEAN_MOTION_DDOT":"0.0000000000000","ARG_OF_PERICENTER":"11.5673","PERIAPSIS":"442.429","RA_OF_ASC_NODE":"20.6017","MEAN_ANOMALY":"154.9919","FILE":"3291273","SITE":"AFETR","RCS_SIZE":"LARGE","CENTER_NAME":"EARTH","TLE_LINE2":"2 49756  53.2188  20.6017 0003236  11.5673 154.9919 15.40499147  3648","LAUNCH_DATE":"2021-12-02","DECAY_DATE":null,"INCLINATION":"53.2188"},{"EPHEMERIS_TYPE":"0","OBJECT_NAME":"STARLINK-3197","REF_FRAME":"TEME","PERIOD":"93.477","BSTAR":"0.00015100000000","GP_ID":"195261600","CLASSIFICATION_TYPE":"U","TLE_LINE1":"1 49757U 21115AK  22034.91668981  .00005816  00000-0  15100-3 0  9991","EPOCH":"2022-02-03T22:00:01.999584","MEAN_MOTION":"15.40491033","APOAPSIS":"446.593","MEAN_MOTION_DOT":"0.00005816","COUNTRY_CODE":"US","ELEMENT_SET_NO":"999","SEMIMAJOR_AXIS":"6822.796","MEAN_ELEMENT_THEORY":"SGP4","TIME_SYSTEM":"UTC","ECCENTRICITY":"0.00028320","OBJECT_ID":"2021-115AK","REV_AT_EPOCH":"364","INCLINATION":"53.2193","DECAY_DATE":null,"LAUNCH_DATE":"2021-12-02","TLE_LINE2":"2 49757  53.2193  20.5982 0002832  15.8158 153.8370 15.40491033  3646","RCS_SIZE":"LARGE","CENTER_NAME":"EARTH","FILE":"3291273","SITE":"AFETR","MEAN_ANOMALY":"153.8370","RA_OF_ASC_NODE":"20.5982","PERIAPSIS":"442.729","NORAD_CAT_ID":"49757","OBJECT_TYPE":"PAYLOAD","MEAN_MOTION_DDOT":"0.0000000000000","ARG_OF_PERICENTER":"15.8158"},{"OBJECT_NAME":"STARLINK-3194","EPHEMERIS_TYPE":"0","CLASSIFICATION_TYPE":"U","GP_ID":"195261850","PERIOD":"93.478","BSTAR":"0.00047658000000","REF_FRAME":"TEME","MEAN_MOTION_DOT":"0.00019248","COUNTRY_CODE":"US","ELEMENT_SET_NO":"999","APOAPSIS":"446.709","TLE_LINE1":"1 49758U 21115AL  22034.91668981  .00019248  00000-0  47658-3 0  9999","EPOCH":"2022-02-03T22:00:01.999584","MEAN_MOTION":"15.40465120","REV_AT_EPOCH":"364","ECCENTRICITY":"0.00028890","OBJECT_ID":"2021-115AL","TIME_SYSTEM":"UTC","MEAN_ELEMENT_THEORY":"SGP4","SEMIMAJOR_AXIS":"6822.873","DECAY_DATE":null,"LAUNCH_DATE":"2021-12-02","INCLINATION":"53.2187","RCS_SIZE":"LARGE","CENTER_NAME":"EARTH","TLE_LINE2":"2 49758  53.2187  20.6053 0002889  15.3939 149.0205 15.40465120  3646","MEAN_ANOMALY":"149.0205","SITE":"AFETR","FILE":"3291273","MEAN_MOTION_DDOT":"0.0000000000000","OBJECT_TYPE":"PAYLOAD","NORAD_CAT_ID":"49758","ARG_OF_PERICENTER":"15.3939","RA_OF_ASC_NODE":"20.6053","PERIAPSIS":"442.766"},{"CENTER_NAME":"EARTH","RCS_SIZE":"LARGE","TLE_LINE2":"2 49759  53.2192  20.6021 0002862  20.5980 146.9170 15.40478900 10963","DECAY_DATE":null,"LAUNCH_DATE":"2021-12-02","INCLINATION":"53.2192","OBJECT_TYPE":"PAYLOAD","NORAD_CAT_ID":"49759","MEAN_MOTION_DDOT":"0.0000000000000","ARG_OF_PERICENTER":"20.5980","RA_OF_ASC_NODE":"20.6021","PERIAPSIS":"442.744","MEAN_ANOMALY":"146.9170","FILE":"3291257","SITE":"AFETR","GP_ID":"195213024","CLASSIFICATION_TYPE":"U","REF_FRAME":"TEME","PERIOD":"93.477","BSTAR":"0.00087128000000","OBJECT_NAME":"STARLINK-3204","EPHEMERIS_TYPE":"0","ECCENTRICITY":"0.00028620","OBJECT_ID":"2021-115AM","REV_AT_EPOCH":"1096","SEMIMAJOR_AXIS":"6822.832","MEAN_ELEMENT_THEORY":"SGP4","TIME_SYSTEM":"UTC","COUNTRY_CODE":"US","MEAN_MOTION_DOT":"0.00035616","ELEMENT_SET_NO":"999","TLE_LINE1":"1 49759U 21115AM  22034.91668981  .00035616  00000-0  87128-3 0  9993","EPOCH":"2022-02-03T22:00:01.999584","MEAN_MOTION":"15.40478900","APOAPSIS":"446.650"},{"APOAPSIS":"446.399","EPOCH":"2022-02-03T22:00:01.999584","MEAN_MOTION":"15.40485083","TLE_LINE1":"1 49760U 21115AN  22034.91668981  .00009871  00000-0  24932-3 0  9993","ELEMENT_SET_NO":"999","COUNTRY_CODE":"US","MEAN_MOTION_DOT":"0.00009871","TIME_SYSTEM":"UTC","MEAN_ELEMENT_THEORY":"SGP4","SEMIMAJOR_AXIS":"6822.814","REV_AT_EPOCH":"364","OBJECT_ID":"2021-115AN","ECCENTRICITY":"0.00025210","EPHEMERIS_TYPE":"0","OBJECT_NAME":"STARLINK-3199","BSTAR":"0.00024932000000","PERIOD":"93.477","REF_FRAME":"TEME","CLASSIFICATION_TYPE":"U","GP_ID":"195262852","SITE":"AFETR","FILE":"3291273","MEAN_ANOMALY":"138.3598","PERIAPSIS":"442.959","RA_OF_ASC_NODE":"20.6088","OBJECT_TYPE":"PAYLOAD","MEAN_MOTION_DDOT":"0.0000000000000","ARG_OF_PERICENTER":"23.8969","NORAD_CAT_ID":"49760","INCLINATION":"53.2186","DECAY_DATE":null,"LAUNCH_DATE":"2021-12-02","TLE_LINE2":"2 49760  53.2186  20.6088 0002521  23.8969 138.3598 15.40485083  3642","RCS_SIZE":"MEDIUM","CENTER_NAME":"EARTH"},{"SEMIMAJOR_AXIS":"6822.829","TIME_SYSTEM":"UTC","MEAN_ELEMENT_THEORY":"SGP4","OBJECT_ID":"2021-115AP","ECCENTRICITY":"0.00027230","REV_AT_EPOCH":"364","TLE_LINE1":"1 49761U 21115AP  22034.91668981  .00020417  00000-0  50462-3 0  9990","MEAN_MOTION":"15.40480014","EPOCH":"2022-02-03T22:00:01.999584","APOAPSIS":"446.551","ELEMENT_SET_NO":"999","COUNTRY_CODE":"US","MEAN_MOTION_DOT":"0.00020417","REF_FRAME":"TEME","PERIOD":"93.477","BSTAR":"0.00050462000000","CLASSIFICATION_TYPE":"U","GP_ID":"195261101","EPHEMERIS_TYPE":"0","OBJECT_NAME":"STARLINK-3203","RA_OF_ASC_NODE":"20.6055","PERIAPSIS":"442.836","MEAN_MOTION_DDOT":"0.0000000000000","OBJECT_TYPE":"PAYLOAD","NORAD_CAT_ID":"49761","ARG_OF_PERICENTER":"17.1577","FILE":"3291273","SITE":"AFETR","MEAN_ANOMALY":"148.2992","TLE_LINE2":"2 49761  53.2190  20.6055 0002723  17.1577 148.2992 15.40480014  3644","CENTER_NAME":"EARTH","RCS_SIZE":"LARGE","INCLINATION":"53.2190","LAUNCH_DATE":"2021-12-02","DECAY_DATE":null},{"EPHEMERIS_TYPE":"0","OBJECT_NAME":"STARLINK-3195","REF_FRAME":"TEME","PERIOD":"93.479","BSTAR":"0.00074477000000","CLASSIFICATION_TYPE":"U","GP_ID":"195261351","TLE_LINE1":"1 49762U 21115AQ  22034.91668981  .00030341  00000-0  74477-3 0  9990","EPOCH":"2022-02-03T22:00:01.999584","MEAN_MOTION":"15.40455884","APOAPSIS":"446.428","COUNTRY_CODE":"US","ELEMENT_SET_NO":"999","MEAN_MOTION_DOT":"0.00030341","SEMIMAJOR_AXIS":"6822.900","MEAN_ELEMENT_THEORY":"SGP4","TIME_SYSTEM":"UTC","ECCENTRICITY":"0.00024380","OBJECT_ID":"2021-115AQ","REV_AT_EPOCH":"364","INCLINATION":"53.2189","DECAY_DATE":null,"LAUNCH_DATE":"2021-12-02","TLE_LINE2":"2 49762  53.2189  20.6143 0002438  19.8204 140.4188 15.40455884  3648","CENTER_NAME":"EARTH","RCS_SIZE":"LARGE","FILE":"3291273","SITE":"AFETR","MEAN_ANOMALY":"140.4188","RA_OF_ASC_NODE":"20.6143","PERIAPSIS":"443.101","MEAN_MOTION_DDOT":"0.0000000000000","OBJECT_TYPE":"PAYLOAD","NORAD_CAT_ID":"49762","ARG_OF_PERICENTER":"19.8204"}];
